METEOR-M2 3             
1 57166U 23091A   24350.12596061  .00000076  00000+0  52272-4 0  9998
2 57166  98.6896  42.9580 0003434 340.1213  19.9831 14.23960319 76371
METEOR-M2 3 DEB         
1 60448U 23091BC  24349.59100053  .00000673  00000+0  30978-3 0  9997
2 60448  98.6904  42.5416 0003413 339.2015  20.9024 14.24442037 40569
